SPACEMOBILE-004         
1 61049U 24163E   26193.40140888  .00012717  00000+0  58302-3 0  9998
2 61049  52.9682 192.9673 0006853 216.7757 143.2768 15.20795560101607
CZ-8A R/B               
1 66004U 25231K   26194.53449013 -.00000085  00000+0  28262-4 0  9997
2 66004  50.0044 287.2242 0116553 316.7652  42.4160 14.30161916 38717
SZ-21 MODULE            
1 66515U 25246C   26194.23468587  .00036875  00000+0  20511-3 0  9997
2 66515  41.4707 144.8204 0007887 207.7772 152.2653 15.78673057 37859
SPACEMOBILE-006         
1 67232U 25309A   26194.43397711  .00000450  00000+0  36802-4 0  9997
2 67232  52.9936 211.4033 0010307 209.4952 150.5461 15.18650721 30586
SPACEMOBILE-008         
1 69589U 26139A   26194.23693319 -.00000117  00000+0  10367-4 0  9996
2 69589  52.9945 144.2981 0004990  51.8250 308.3190 15.12800584  3927
SPACEMOBILE-009         
1 69590U 26139B   26194.50303825 -.00000114  00000+0  10568-4 0  9998
2 69590  52.9937 143.1044 0005247  48.2682 311.8757 15.12694011  3961
SPACEMOBILE-010         
1 69591U 26139C   26194.24165291 -.00000028  00000+0  15486-4 0  9991
2 69591  52.9943 144.3248 0005157  39.4417 320.6949 15.12525408  3937
